NORAD_CAT_ID,OBJECT_NAME,OBJECT_TYPE,EPOCH,MEAN_MOTION,ECCENTRICITY,INCLINATION,RA_OF_ASC_NODE,ARG_OF_PERICENTER,MEAN_ANOMALY,BSTAR,MEAN_MOTION_DOT,MEAN_MOTION_DDOT,TLE_LINE0,TLE_LINE1,TLE_LINE2,SEMIMAJOR_AXIS,PERIOD,APOGEE,PERIGEE,DECAYED
55956.0,STARLINK-5883,PAYLOAD,2023-08-10 04:27:40,15.69912417,0.0003959,70.0002,132.2053,265.0408,95.0335,-9.105e-06,-1.307e-05,0.0,0 STARLINK-5883,1 55956U 23037AU  23222.18588832 -.00001307  00000-0 -91050-5 0  9992,2 55956  70.0002 132.2053 0003959 265.0408  95.0335 15.69912417 23351,6737.285,91.725,361.817,356.482,0.0
55956.0,STARLINK-5883,PAYLOAD,2023-08-11 06:27:27,15.69930797,0.0003376,69.9982,129.1606,264.9124,95.1686,-1.4291e-05,-1.931e-05,0.0,0 STARLINK-5883,1 55956U 23037AU  23223.26906875 -.00001931  00000-0 -14291-4 0  9997,2 55956  69.9982 129.1606 0003376 264.9124  95.1686 15.69930797 23520,6737.232,91.724,361.371,356.822,0.0
55956.0,STARLINK-5883,PAYLOAD,2023-08-12 02:20:12,15.69950912,0.000337,69.9976,126.8327,258.6044,101.4773,-3.06e-05,-3.895e-05,0.0,0 STARLINK-5883,1 55956U 23037AU  23224.09737186 -.00003895  00000-0 -30600-4 0  9999,2 55956  69.9976 126.8327 0003370 258.6044 101.4773 15.69950912 23655,6737.174,91.723,361.31,356.769,0.0
55956.0,STARLINK-5883,PAYLOAD,2023-08-12 17:37:45,15.69921998,0.0003491,69.9978,125.0411,265.7678,94.3119,1.5076e-05,1.6e-05,0.0,0 STARLINK-5883,1 55956U 23037AU  23224.73455593  .00001600  00000-0  15076-4 0  9999,2 55956  69.9978 125.0411 0003491 265.7678  94.3119 15.69921998 23755,6737.257,91.724,361.474,356.77,0.0
55956.0,STARLINK-5883,PAYLOAD,2023-08-13 18:05:48,15.69916592,0.0003521,69.9973,122.1748,261.5074,98.5722,8.7487e-06,8.39e-06,0.0,0 STARLINK-5883,1 55956U 23037AU  23225.75402946  .00000839  00000-0  87487-5 0  9995,2 55956  69.9973 122.1748 0003521 261.5074  98.5722 15.69916592 23917,6737.273,91.725,361.51,356.765,0.0
55956.0,STARLINK-5883,PAYLOAD,2023-08-14 04:48:02,15.69933602,0.0003752,69.9973,120.9218,262.9,97.1769,1.3528e-05,1.415e-05,0.0,0 STARLINK-5883,1 55956U 23037AU  23226.20003422  .00001415  00000-0  13528-4 0  9997,2 55956  69.9973 120.9218 0003752 262.9000  97.1769 15.69933602 23989,6737.224,91.724,361.617,356.561,0.0
55956.0,STARLINK-5883,PAYLOAD,2023-08-15 02:12:35,15.69925623,0.0003565,69.997,118.4127,264.5345,95.5444,5.6782e-06,4.7e-06,0.0,0 STARLINK-5883,1 55956U 23037AU  23227.09207375  .00000470  00000-0  56782-5 0  9998,2 55956  69.9970 118.4127 0003565 264.5345  95.5444 15.69925623 24122,6737.247,91.724,361.514,356.71,0.0
55956.0,STARLINK-5883,PAYLOAD,2023-08-16 04:12:22,15.69926955,0.0003578,69.9973,115.3685,261.1639,98.9151,-3.5789e-07,-2.56e-06,0.0,0 STARLINK-5883,1 55956U 23037AU  23228.17525856 -.00000256  00000-0 -35789-6 0  9994,2 55956  69.9973 115.3685 0003578 261.1639  98.9151 15.69926955 24292,6737.243,91.724,361.519,356.697,0.0
55956.0,STARLINK-5883,PAYLOAD,2023-08-17 15:22:40,15.69951232,0.0003727,69.996,111.247,265.6326,94.4444,-4.3626e-05,-5.462e-05,0.0,0 STARLINK-5883,1 55956U 23037AU  23229.64074441 -.00005462  00000-0 -43626-4 0  9997,2 55956  69.9960 111.2470 0003727 265.6326  94.4444 15.69951232 24521,6737.174,91.723,361.549,356.528,0.0
55956.0,STARLINK-5883,PAYLOAD,2023-08-18 02:04:56,15.6991282,0.0003222,69.9986,109.992,274.7062,85.3766,8.3796e-06,7.95e-06,0.0,0 STARLINK-5883,1 55956U 23037AU  23230.08676871  .00000795  00000-0  83796-5 0  9997,2 55956  69.9986 109.9920 0003222 274.7062  85.3766 15.69912820 24594,6737.283,91.725,361.319,356.978,0.0
55956.0,STARLINK-5883,PAYLOAD,2023-08-18 15:50:41,15.69933348,0.0003659,69.9973,108.3796,267.1135,92.9642,1.2666e-05,1.311e-05,0.0,0 STARLINK-5883,1 55956U 23037AU  23230.66020313  .00001311  00000-0  12666-4 0  9997,2 55956  69.9973 108.3796 0003659 267.1135  92.9642 15.69933348 24680,6737.225,91.724,361.555,356.625,0.0
55956.0,STARLINK-5883,PAYLOAD,2023-08-19 01:01:14,15.69909927,0.0003196,69.9961,107.3058,270.4059,89.6771,-1.3795e-05,-1.87e-05,0.0,0 STARLINK-5883,1 55956U 23037AU  23231.04252368 -.00001870  00000-0 -13795-4 0  9993,2 55956  69.9961 107.3058 0003196 270.4059  89.6771 15.69909927 24744,6737.292,91.725,361.31,357.003,0.0
55956.0,STARLINK-5883,PAYLOAD,2023-08-19 19:22:15,15.69911059,0.0003567,69.9967,105.1569,263.1941,96.8849,7.5314e-06,6.92e-06,0.0,0 STARLINK-5883,1 55956U 23037AU  23231.80712016  .00000692  00000-0  75314-5 0  9993,2 55956  69.9967 105.1569 0003567 263.1941  96.8849 15.69911059 24862,6737.288,91.725,361.557,356.75,0.0
55956.0,STARLINK-5883,PAYLOAD,2023-08-20 01:29:15,15.69918684,0.000369,69.9981,104.4388,270.5459,89.5314,9.6167e-06,9.43e-06,0.0,0 STARLINK-5883,1 55956U 23037AU  23232.06198364  .00000943  00000-0  96167-5 0  9994,2 55956  69.9981 104.4388 0003690 270.5459  89.5314 15.69918684 24904,6737.267,91.724,361.618,356.646,0.0
55956.0,STARLINK-5883,PAYLOAD,2023-08-21 01:57:17,15.69918786,0.0003093,69.9984,101.5735,256.6031,103.482,1.4932e-06,-3.3e-07,0.0,0 STARLINK-5883,1 55956U 23037AU  23233.08145157 -.00000033  00000-0  14932-5 0  9990,2 55956  69.9984 101.5735 0003093 256.6031 103.4820 15.69918786 25068,6737.266,91.724,361.215,357.048,0.0
55956.0,STARLINK-5883,PAYLOAD,2023-08-21 18:46:33,15.69931129,0.000345,69.998,99.6031,262.648,97.4324,5.7084e-06,4.74e-06,0.0,0 STARLINK-5883,1 55956U 23037AU  23233.78232838  .00000474  00000-0  57084-5 0  9993,2 55956  69.9980  99.6031 0003450 262.6480  97.4324 15.69931129 25171,6737.231,91.724,361.42,356.772,0.0
55956.0,STARLINK-5883,PAYLOAD,2023-08-22 00:53:34,15.69914349,0.0003361,69.9972,98.8856,266.1383,93.9429,-1.1791e-05,-1.63e-05,0.0,0 STARLINK-5883,1 55956U 23037AU  23234.03720904 -.00001630  00000-0 -11791-4 0  9999,2 55956  69.9972  98.8856 0003361 266.1383  93.9429 15.69914349 25217,6737.279,91.725,361.408,356.88,0.0
55956.0,STARLINK-5883,PAYLOAD,2023-08-22 23:49:51,15.69918385,0.0003229,69.9977,96.1996,267.2821,92.8005,1.4702e-05,1.555e-05,0.0,0 STARLINK-5883,1 55956U 23037AU  23234.99295429  .00001555  00000-0  14702-4 0  9992,2 55956  69.9977  96.1996 0003229 267.2821  92.8005 15.69918385 25368,6737.267,91.725,361.308,356.957,0.0
55956.0,STARLINK-5883,PAYLOAD,2023-08-24 11:00:09,15.69914645,0.0003393,69.9978,92.0768,269.8201,90.2606,1.6876e-05,1.816e-05,0.0,0 STARLINK-5883,1 55956U 23037AU  23236.45844057  .00001816  00000-0  16876-4 0  9996,2 55956  69.9978  92.0768 0003393 269.8201  90.2606 15.69914645 25255,6737.278,91.725,361.429,356.857,0.0
55956.0,STARLINK-5883,PAYLOAD,2023-08-25 00:45:54,15.69903329,0.0003662,69.9979,90.4651,255.747,104.3319,5.1011e-05,5.92e-05,0.0,0 STARLINK-5883,1 55956U 23037AU  23237.03188380  .00005920  00000-0  51011-4 0  9991,2 55956  69.9979  90.4651 0003662 255.7470 104.3319 15.69903329 25682,6737.311,91.725,361.643,356.708,0.0
55956.0,STARLINK-5883,PAYLOAD,2023-08-25 17:35:12,15.69908002,0.0003913,69.9974,88.4945,276.6906,83.3844,7.2949e-06,6.64e-06,0.0,0 STARLINK-5883,1 55956U 23037AU  23237.73277862  .00000664  00000-0  72949-5 0  9996,2 55956  69.9974  88.4945 0003913 276.6906  83.3844 15.69908002 25452,6737.297,91.725,361.799,356.526,0.0
55956.0,STARLINK-5883,PAYLOAD,2023-08-26 13:27:58,15.69925776,0.0003475,69.9975,86.166,267.2815,92.7983,2.0828e-06,3.8e-07,0.0,0 STARLINK-5883,1 55956U 23037AU  23238.56108859  .00000038  00000-0  20828-5 0  9991,2 55956  69.9975  86.1660 0003475 267.2815  92.7983 15.69925776 25589,6737.246,91.724,361.453,356.77,0.0
55956.0,STARLINK-5883,PAYLOAD,2023-08-26 16:31:27,15.69933411,0.0003092,69.9981,85.8094,265.1929,94.8914,1.0696e-05,1.074e-05,0.0,0 STARLINK-5883,1 55956U 23037AU  23238.68851623  .00001074  00000-0  10696-4 0  9990,2 55956  69.9981  85.8094 0003092 265.1929  94.8914 15.69933411 25943,6737.225,91.724,361.173,357.006,0.0
55956.0,STARLINK-5883,PAYLOAD,2023-08-27 00:10:13,15.69921675,0.0003184,69.9971,84.9116,269.0527,91.0304,5.7438e-06,4.78e-06,0.0,0 STARLINK-5883,1 55956U 23037AU  23239.00710613  .00000478  00000-0  57438-5 0  9993,2 55956  69.9971  84.9116 0003184 269.0527  91.0304 15.69921675 25992,6737.258,91.724,361.268,356.978,0.0
55956.0,STARLINK-5883,PAYLOAD,2023-08-27 16:59:30,15.69916697,0.0003158,69.9972,82.9403,266.2646,93.8188,1.429e-05,1.505e-05,0.0,0 STARLINK-5883,1 55956U 23037AU  23239.70799119  .00001505  00000-0  14290-4 0  9998,2 55956  69.9972  82.9403 0003158 266.2646  93.8188 15.69916697 25765,6737.272,91.725,361.265,357.01,0.0
55956.0,STARLINK-5883,PAYLOAD,2023-08-28 02:10:01,15.69917244,0.0003202,69.997,81.865,270.3152,89.7676,1.3101e-05,1.362e-05,0.0,0 STARLINK-5883,1 55956U 23037AU  23240.09029279  .00001362  00000-0  13101-4 0  9996,2 55956  69.9970  81.8650 0003202 270.3152  89.7676 15.69917244 26163,6737.271,91.725,361.293,356.978,0.0
55956.0,STARLINK-5883,PAYLOAD,2023-08-28 15:55:47,15.69929284,0.0003259,69.9963,80.2538,271.9023,88.1799,-1.2126e-05,-1.671e-05,0.0,0 STARLINK-5883,1 55956U 23037AU  23240.66374203 -.00001671  00000-0 -12126-4 0  9990,2 55956  69.9963  80.2538 0003259 271.9023  88.1799 15.69929284 25917,6737.236,91.724,361.297,356.906,0.0
55956.0,STARLINK-5883,PAYLOAD,2023-08-29 01:06:17,15.69931583,0.0003034,69.9965,79.1785,279.71,80.3753,1.5699e-05,1.676e-05,0.0,0 STARLINK-5883,1 55956U 23037AU  23241.04603539  .00001676  00000-0  15699-4 0  9991,2 55956  69.9965  79.1785 0003034 279.7100  80.3753 15.69931583 26317,6737.23,91.724,361.139,357.051,0.0
55956.0,STARLINK-5883,PAYLOAD,2023-08-29 16:23:49,15.6992082,0.0003339,69.9968,77.3868,271.6104,88.4709,4.6807e-06,3.5e-06,0.0,0 STARLINK-5883,1 55956U 23037AU  23241.68321034  .00000350  00000-0  46807-5 0  9992,2 55956  69.9968  77.3868 0003339 271.6104  88.4709 15.69920820 26418,6737.261,91.724,361.375,356.876,0.0
55956.0,STARLINK-5883,PAYLOAD,2023-08-29 22:30:52,15.69890267,0.0003709,69.9963,76.6706,278.8075,81.27,-2.9299e-05,-3.73e-05,0.0,0 STARLINK-5883,1 55956U 23037AU  23241.93810608 -.00003730  00000-0 -29299-4 0  9992,2 55956  69.9963  76.6706 0003709 278.8075  81.2700 15.69890267 26450,6737.348,91.726,361.712,356.714,0.0
